{
  "type": "FeatureCollection",
  "features": [
    {
      "type": "Feature",
      "properties": {
        "norad_id": 67082,
        "name": "STARLINK-36035",
        "group": "last-30-days",
        "lat": -51.17266563248396,
        "lon": -174.50441528215342,
        "alt_km": 340.096856080665,
        "timestamp": "2025-12-25T22:42:15.712140+00:00",
        "meta_object_name": "STARLINK-36035",
        "meta_object_id": "2025-298H",
        "meta_epoch": "2025-12-25T18:00:02.000160",
        "meta_mean_motion": 15.7885788,
        "meta_eccentricity": 0.0003754,
        "meta_inclination": 69.997,
        "meta_ra_of_asc_node": 212.9673,
        "meta_arg_of_pericenter": 271.3059,
        "meta_mean_anomaly": 359.3526,
        "meta_ephemeris_type": 0,
        "meta_classification_type": "U",
        "meta_norad_cat_id": 67082,
        "meta_element_set_no": 999,
        "meta_rev_at_epoch": 306,
        "meta_bstar": -0.011346,
        "meta_mean_motion_dot": -0.01769452,
        "meta_mean_motion_ddot": 0,
        "tle_line1": "1 67082U 25298H   25359.75002315 -.01769452  00000+0 -11346-1 0  9997",
        "tle_line2": "2 67082  69.9970 212.9673 0003754 271.3059 359.3526 15.78857880  3060"
      },
      "geometry": {
        "type": "Point",
        "coordinates": [
          -174.50441528215342,
          -51.17266563248396
        ]
      }
    },
    {
      "type": "Feature",
      "properties": {
        "norad_id": 67083,
        "name": "STARLINK-36170",
        "group": "last-30-days",
        "lat": -49.41092293458332,
        "lon": -172.7567272173747,
        "alt_km": 340.16482331603584,
        "timestamp": "2025-12-25T22:42:15.712150+00:00",
        "meta_object_name": "STARLINK-36170",
        "meta_object_id": "2025-298J",
        "meta_epoch": "2025-12-25T18:00:02.000160",
        "meta_mean_motion": 15.78851457,
        "meta_eccentricity": 0.000386,
        "meta_inclination": 69.9967,
        "meta_ra_of_asc_node": 212.9646,
        "meta_arg_of_pericenter": 267.4361,
        "meta_mean_anomaly": 5.3127,
        "meta_ephemeris_type": 0,
        "meta_classification_type": "U",
        "meta_norad_cat_id": 67083,
        "meta_element_set_no": 999,
        "meta_rev_at_epoch": 306,
        "meta_bstar": -0.011345,
        "meta_mean_motion_dot": -0.01768979,
        "meta_mean_motion_ddot": 0,
        "tle_line1": "1 67083U 25298J   25359.75002315 -.01768979  00000+0 -11345-1 0  9990",
        "tle_line2": "2 67083  69.9967 212.9646 0003860 267.4361   5.3127 15.78851457  3066"
      },
      "geometry": {
        "type": "Point",
        "coordinates": [
          -172.7567272173747,
          -49.41092293458332
        ]
      }
    },
    {
      "type": "Feature",
      "properties": {
        "norad_id": 67084,
        "name": "STARLINK-36166",
        "group": "last-30-days",
        "lat": -47.711272306437955,
        "lon": -171.2064536262295,
        "alt_km": 340.1025875505302,
        "timestamp": "2025-12-25T22:42:15.712162+00:00",
        "meta_object_name": "STARLINK-36166",
        "meta_object_id": "2025-298K",
        "meta_epoch": "2025-12-25T18:00:02.000160",
        "meta_mean_motion": 15.7884879,
        "meta_eccentricity": 0.0003773,
        "meta_inclination": 69.9968,
        "meta_ra_of_asc_node": 212.962,
        "meta_arg_of_pericenter": 271.7718,
        "meta_mean_anomaly": 2.9708,
        "meta_ephemeris_type": 0,
        "meta_classification_type": "U",
        "meta_norad_cat_id": 67084,
        "meta_element_set_no": 999,
        "meta_rev_at_epoch": 300,
        "meta_bstar": -0.011357,
        "meta_mean_motion_dot": -0.01770359,
        "meta_mean_motion_ddot": 0,
        "tle_line1": "1 67084U 25298K   25359.75002315 -.01770359  00000+0 -11357-1 0  9999",
        "tle_line2": "2 67084  69.9968 212.9620 0003773 271.7718   2.9708 15.78848790  3005"
      },
      "geometry": {
        "type": "Point",
        "coordinates": [
          -171.2064536262295,
          -47.711272306437955
        ]
      }
    },
    {
      "type": "Feature",
      "properties": {
        "norad_id": 67085,
        "name": "STARLINK-35794",
        "group": "last-30-days",
        "lat": -46.00646584419248,
        "lon": -169.7661348896588,
        "alt_km": 340.18252025531183,
        "timestamp": "2025-12-25T22:42:15.712172+00:00",
        "meta_object_name": "STARLINK-35794",
        "meta_object_id": "2025-298L",
        "meta_epoch": "2025-12-25T18:00:02.000160",
        "meta_mean_motion": 15.78845927,
        "meta_eccentricity": 0.0003835,
        "meta_inclination": 69.9969,
        "meta_ra_of_asc_node": 212.9599,
        "meta_arg_of_pericenter": 268.0849,
        "meta_mean_anomaly": 8.6285,
        "meta_ephemeris_type": 0,
        "meta_classification_type": "U",
        "meta_norad_cat_id": 67085,
        "meta_element_set_no": 999,
        "meta_rev_at_epoch": 306,
        "meta_bstar": -0.01135,
        "meta_mean_motion_dot": -0.01769247,
        "meta_mean_motion_ddot": 0,
        "tle_line1": "1 67085U 25298L   25359.75002315 -.01769247  00000+0 -11350-1 0  9997",
        "tle_line2": "2 67085  69.9969 212.9599 0003835 268.0849   8.6285 15.78845927  3063"
      },
      "geometry": {
        "type": "Point",
        "coordinates": [
          -169.7661348896588,
          -46.00646584419248
        ]
      }
    },
    {
      "type": "Feature",
      "properties": {
        "norad_id": 67086,
        "name": "STARLINK-35841",
        "group": "last-30-days",
        "lat": -44.11983396088763,
        "lon": -168.28854080700427,
        "alt_km": 340.23002025163714,
        "timestamp": "2025-12-25T22:42:15.712181+00:00",
        "meta_object_name": "STARLINK-35841",
        "meta_object_id": "2025-298M",
        "meta_epoch": "2025-12-25T18:00:02.000160",
        "meta_mean_motion": 15.78835005,
        "meta_eccentricity": 0.0003674,
        "meta_inclination": 69.9968,
        "meta_ra_of_asc_node": 212.9571,
        "meta_arg_of_pericenter": 270.0927,
        "meta_mean_anomaly": 8.79,
        "meta_ephemeris_type": 0,
        "meta_classification_type": "U",
        "meta_norad_cat_id": 67086,
        "meta_element_set_no": 999,
        "meta_rev_at_epoch": 306,
        "meta_bstar": -0.011355,
        "meta_mean_motion_dot": -0.01769026,
        "meta_mean_motion_ddot": 0,
        "tle_line1": "1 67086U 25298M   25359.75002315 -.01769026  00000+0 -11355-1 0  9998",
        "tle_line2": "2 67086  69.9968 212.9571 0003674 270.0927   8.7900 15.78835005  3065"
      },
      "geometry": {
        "type": "Point",
        "coordinates": [
          -168.28854080700427,
          -44.11983396088763
        ]
      }
    },
    {
      "type": "Feature",
      "properties": {
        "norad_id": 67087,
        "name": "STARLINK-35842",
        "group": "last-30-days",
        "lat": -50.310414788087975,
        "lon": -173.628607057148,
        "alt_km": 348.1063443933617,
        "timestamp": "2025-12-25T22:42:15.712193+00:00",
        "meta_object_name": "STARLINK-35842",
        "meta_object_id": "2025-298N",
        "meta_epoch": "2025-12-25T18:00:02.000160",
        "meta_mean_motion": 15.76424311,
        "meta_eccentricity": 0.0003694,
        "meta_inclination": 69.9978,
        "meta_ra_of_asc_node": 212.9633,
        "meta_arg_of_pericenter": 264.8977,
        "meta_mean_anomaly": 8.6126,
        "meta_ephemeris_type": 0,
        "meta_classification_type": "U",
        "meta_norad_cat_id": 67087,
        "meta_element_set_no": 999,
        "meta_rev_at_epoch": 306,
        "meta_bstar": -0.017903,
        "meta_mean_motion_dot": -0.0244191,
        "meta_mean_motion_ddot": 0,
        "tle_line1": "1 67087U 25298N   25359.75002315 -.02441910  00000+0 -17903-1 0  9994",
        "tle_line2": "2 67087  69.9978 212.9633 0003694 264.8977   8.6126 15.76424311  3065"
      },
      "geometry": {
        "type": "Point",
        "coordinates": [
          -173.628607057148,
          -50.310414788087975
        ]
      }
    },
    {
      "type": "Feature",
      "properties": {
        "norad_id": 67088,
        "name": "STARLINK-35882",
        "group": "last-30-days",
        "lat": -40.63878584677426,
        "lon": -165.825373875346,
        "alt_km": 340.1645010220727,
        "timestamp": "2025-12-25T22:42:15.712203+00:00",
        "meta_object_name": "STARLINK-35882",
        "meta_object_id": "2025-298P",
        "meta_epoch": "2025-12-25T18:00:02.000160",
        "meta_mean_motion": 15.78829395,
        "meta_eccentricity": 0.0003862,
        "meta_inclination": 69.997,
        "meta_ra_of_asc_node": 212.9525,
        "meta_arg_of_pericenter": 269.1244,
        "meta_mean_anomaly": 13.6927,
        "meta_ephemeris_type": 0,
        "meta_classification_type": "U",
        "meta_norad_cat_id": 67088,
        "meta_element_set_no": 999,
        "meta_rev_at_epoch": 306,
        "meta_bstar": -0.011342,
        "meta_mean_motion_dot": -0.01767037,
        "meta_mean_motion_ddot": 0,
        "tle_line1": "1 67088U 25298P   25359.75002315 -.01767037  00000+0 -11342-1 0  9996",
        "tle_line2": "2 67088  69.9970 212.9525 0003862 269.1244  13.6927 15.78829395  3068"
      },
      "geometry": {
        "type": "Point",
        "coordinates": [
          -165.825373875346,
          -40.63878584677426
        ]
      }
    }
  ]
}